STARLINK-31162          
1 58791U 24012E   26068.33510763 -.00000616  00000+0 -12838-4 0  9999
2 58791  43.0024 167.0956 0001906 282.4896  77.5743 15.27589946121186
REAL                    
1 64875U 25154G   26068.72233414  .00022901  00000+0  82904-3 0  9994
2 64875  97.4133 137.2581 0001853 118.5876 241.5550 15.28408058 34830
